*******************************************************************************
Ephemeris / PORT_LOGIN Sun Nov 27 10:15:18 2011 Pasadena, USA    / Horizons    
*******************************************************************************
Target body name: Larissa (807)                   {source: NEP077}
Center body name: Solar System Barycenter (0)     {source: DE405}
Center-site name: BODY CENTER
*******************************************************************************
Start time      : A.D. 2001-Jan-01 10:00:00.0000 CT 
Stop  time      : A.D. 2001-Jan-02 00:00:00.0000 CT 
Step-size       : 60 minutes
*******************************************************************************
Center geodetic : 0.00000000,0.00000000,0.0000000 {E-lon(deg),Lat(deg),Alt(km)}
Center cylindric: 0.00000000,0.00000000,0.0000000 {E-lon(deg),Dxy(km),Dz(km)}
Center radii    : (undefined)                                                  
Output units    : AU-D                                                         
Output format   : 03
Reference frame : ICRF/J2000.0                                                 
Output type     : GEOMETRIC cartesian states
Coordinate systm: Earth Mean Equator and Equinox of Reference Epoch            
*******************************************************************************
JDCT 
   X     Y     Z
   VX    VY    VZ
   LT    RG    RR
*******************************************************************************
$$SOE
2451910.916666667 = A.D. 2001-Jan-01 10:00:00.0000 (CT)
   1.773835559008437E+01 -2.235850835781072E+01 -9.593297332170648E+00
   7.588443079866249E-03  3.974084112778630E-03  5.028947574721219E-05
   1.738981148251288E-01  3.010952521595121E+01  1.503493218753055E-03
2451910.958333333 = A.D. 2001-Jan-01 11:00:00.0000 (CT)
   1.773865311031016E+01 -2.235831056669478E+01 -9.593255452124628E+00
   6.519541241375528E-03  5.408475618791144E-03  1.947429328010057E-03
   1.738982018145323E-01  3.010954027769953E+01 -7.957173658513971E-04
2451911.000000000 = A.D. 2001-Jan-01 12:00:00.0000 (CT)
   1.773888657123666E+01 -2.235806884803974E+01 -9.593138975304003E+00
   4.570758100104815E-03  6.042721211838126E-03  3.563731481272312E-03
   1.738977452001569E-01  3.010946121737122E+01 -2.929670117148619E-03
2451911.041666667 = A.D. 2001-Jan-01 13:00:00.0000 (CT)
   1.773902767219684E+01 -2.235782018345031E+01 -9.592967394504054E+00
   2.169372477425906E-03  5.735383325027329E-03  4.542605790009885E-03
   1.738968431517956E-01  3.010930503253904E+01 -4.428039097592124E-03
2451911.083333333 = A.D. 2001-Jan-01 14:00:00.0000 (CT)
   1.773906842062545E+01 -2.235760313683003E+01 -9.592772369936425E+00
  -1.556812341913220E-04  4.553602496226859E-03  4.667927405942402E-03
   1.738956921086227E-01  3.010910573559167E+01 -4.960215154669869E-03
2451911.125000000 = A.D. 2001-Jan-01 15:00:00.0000 (CT)
   1.773902292973937E+01 -2.235744929927856E+01 -9.592590718680762E+00
  -1.892630046084740E-03  2.758478260628198E-03  3.913016355768040E-03
   1.738945433132760E-01  3.010890682784333E+01 -4.410054166887383E-03
2451911.166666667 = A.D. 2001-Jan-01 16:00:00.0000 (CT)
   1.773892424890819E+01 -2.235737630728322E+01 -9.592456251364894E+00
  -2.661534340967304E-03  7.457599789582814E-04  2.445866989894444E-03
   1.738936470680357E-01  3.010875164779041E+01 -2.901078917644163E-03
2451911.208333333 = A.D. 2001-Jan-01 17:00:00.0000 (CT)
   1.773881698942833E+01 -2.235738402187343E+01 -9.592392334491453E+00
  -2.297440464381088E-03 -1.043332734791115E-03  5.899941241203087E-04
   1.738931975708253E-01  3.010867381976102E+01 -7.667936681389472E-04
2451911.250000000 = A.D. 2001-Jan-01 18:00:00.0000 (CT)
   1.773874748039416E+01 -2.235745467388331E+01 -9.592406840902385E+00
  -8.837973212532407E-04 -2.219465507238098E-03 -1.248519864680810E-03
   1.738932907470550E-01  3.010868995272508E+01  1.525156110605660E-03
2451911.291666667 = A.D. 2001-Jan-01 19:00:00.0000 (CT)
   1.773875367992768E+01 -2.235755684814265E+01 -9.592490542069550E+00
   1.268949450114434E-03 -2.528734903370459E-03 -2.670006612994907E-03
   1.738939040465263E-01  3.010879614223677E+01  3.475991825506742E-03
2451911.333333333 = A.D. 2001-Jan-01 20:00:00.0000 (CT)
   1.773885701192966E+01 -2.235765235455615E+01 -9.592619199666865E+00
   3.692309222120211E-03 -1.905471849852250E-03 -3.366640574541331E-03
   1.738949019834050E-01  3.010896892965108E+01  4.662867196387881E-03
2451911.375000000 = A.D. 2001-Jan-01 21:00:00.0000 (CT)
   1.773905780009904E+01 -2.235770448322115E+01 -9.592758839062761E+00
   5.860317852646464E-03 -4.849895864815749E-04 -3.187264874498703E-03
   1.738960657097735E-01  3.010917042262570E+01  4.828244425993280E-03
2451911.416666667 = A.D. 2001-Jan-01 22:00:00.0000 (CT)
   1.773933520024647E+01 -2.235768591769752E+01 -9.592873074006475E+00
   7.301285126731940E-03  1.425202106985177E-03 -2.169472096315448E-03
   1.738971402027077E-01  3.010935646531011E+01  3.934564120375639E-03
2451911.458333333 = A.D. 2001-Jan-01 23:00:00.0000 (CT)
   1.773965164318914E+01 -2.235758466991048E+01 -9.592930966826271E+00
   7.698953722430863E-03  3.410079367902401E-03 -5.327202676588196E-04
   1.738978892959916E-01  3.010948616679159E+01  2.173599617200614E-03
2451911.500000000 = A.D. 2001-Jan-02 00:00:00.0000 (CT)
   1.773996091109732E+01 -2.235740677096317E+01 -9.592913784904137E+00
   6.962588325729677E-03  5.035632041932642E-03  1.367093971240178E-03
   1.738981471275061E-01  3.010953080893448E+01 -7.247020180064388E-05
$$EOE
*******************************************************************************
Coordinate system description:

  Earth Mean Equator and Equinox of Reference Epoch

    Reference epoch: J2000.0
    xy-plane: plane of the Earth's mean equator at the reference epoch
    x-axis  : out along ascending node of instantaneous plane of the Earth's
              orbit and the Earth's mean equator at the reference epoch
    z-axis  : along the Earth mean north pole at the reference epoch

Symbol meaning [1 AU=149597870.691 km, 1 day=86400.0 s]:

    JDCT     Epoch Julian Date, Coordinate Time
      X      x-component of position vector (AU)                               
      Y      y-component of position vector (AU)                               
      Z      z-component of position vector (AU)                               
      VX     x-component of velocity vector (AU/day)                           
      VY     y-component of velocity vector (AU/day)                           
      VZ     z-component of velocity vector (AU/day)                           
      LT     One-way down-leg Newtonian light-time (day)                       
      RG     Range; distance from coordinate center (AU)                       
      RR     Range-rate; radial velocity wrt coord. center (AU/day)            

Geometric states/elements have no aberration corrections applied.

 Computations by ...
     Solar System Dynamics Group, Horizons On-Line Ephemeris System
     4800 Oak Grove Drive, Jet Propulsion Laboratory
     Pasadena, CA  91109   USA
     Information: http://ssd.jpl.nasa.gov/
     Connect    : telnet://ssd.jpl.nasa.gov:6775  (via browser)
                  telnet ssd.jpl.nasa.gov 6775    (via command-line)
     Author     : Jon.Giorgini@jpl.nasa.gov
*******************************************************************************
